OBJECT_NAME,OBJECT_ID,EPOCH,MEAN_MOTION,ECCENTRICITY,INCLINATION,RA_OF_ASC_NODE,ARG_OF_PERICENTER,MEAN_ANOMALY,EPHEMERIS_TYPE,CLASSIFICATION_TYPE,NORAD_CAT_ID,ELEMENT_SET_NO,REV_AT_EPOCH,BSTAR,MEAN_MOTION_DOT,MEAN_MOTION_DDOT
STARLINK-36933,2026-114Q,2026-06-15T22:09:56.477376,15.80994060,.00006153,53.1568,208.4742,110.7232,249.3857,0,U,69196,999,457,.14476663E-2,.296721E-2,0
STARLINK-37419,2026-114R,2026-06-15T22:07:46.915392,15.81003226,.00005686,53.1568,208.4632,16.5884,343.5157,0,U,69197,999,457,.15940408E-2,.328143E-2,0
STARLINK-37321,2026-114S,2026-06-15T22:06:42.016032,15.80982430,.00006003,53.1572,208.4588,78.7345,281.3745,0,U,69198,999,457,.1237085E-2,.251994E-2,0
STARLINK-37406,2026-114T,2026-06-15T22:05:37.356000,15.80941671,.00006287,53.1569,208.4533,103.8661,256.2432,0,U,69199,999,457,.8773989E-3,.176617E-2,0
STARLINK-37761,2026-114U,2026-06-15T22:04:32.511072,15.80985893,.00004232,53.1567,208.4477,117.0631,243.0435,0,U,69200,999,457,.1390876E-2,.284543E-2,0
STARLINK-37754,2026-114V,2026-06-15T22:03:11.015136,15.80956703,.0001039,53.1568,208.4424,63.1214,296.9915,0,U,69201,999,457,.95199758E-3,.192175E-2,0
STARLINK-37649,2026-114W,2026-06-15T22:02:23.224704,15.80956879,.00012288,53.1569,208.4388,78.6030,281.5131,0,U,69202,999,457,.10364048E-2,.209707E-2,0
STARLINK-37604,2026-114X,2026-06-15T22:01:18.022944,15.80959214,.00009113,53.1568,208.4335,85.8043,274.3084,0,U,69203,999,457,.98382185E-3,.1988E-2,0
STARLINK-37669,2026-114Y,2026-06-15T22:00:13.287744,15.80959032,.00010783,53.1571,208.4283,86.7244,273.3902,0,U,69204,999,457,.10251326E-2,.207383E-2,0
STARLINK-37691,2026-114Z,2026-06-15T22:17:50.269920,15.78109388,.00003685,53.1572,208.5090,38.7355,321.3693,0,U,69205,999,457,.8787034E-3,.155078E-2,0
STARLINK-37671,2026-114AA,2026-06-15T22:00:01.999584,15.78046086,.00010446,53.1581,208.4858,94.0217,237.3557,0,U,69206,999,461,-.86822117E-4,-.15708E-3,0
STARLINK-37647,2026-114AB,2026-06-15T21:59:08.288160,15.81005530,.00008166,53.1569,208.4232,82.2039,277.9076,0,U,69207,999,457,.14580841E-2,.299099E-2,0
STARLINK-37562,2026-114AC,2026-06-15T22:10:14.868480,15.78114250,.00005444,53.1581,208.4735,78.1913,281.9170,0,U,69208,999,457,.81866097E-3,.144282E-2,0
STARLINK-37682,2026-114AD,2026-06-15T21:54:49.047552,15.81003229,.00007986,53.1567,208.4018,101.3203,258.7910,0,U,69209,999,457,.14838903E-2,.304569E-2,0
STARLINK-37402,2026-114AE,2026-06-15T20:22:42.544992,15.80967006,.00015235,53.1569,208.7141,67.1740,292.9444,0,U,69210,999,456,.12313193E-2,.250591E-2,0
STARLINK-37613,2026-115A,2026-06-15T22:00:01.999584,15.49109998,.00011986,97.2837,184.0192,94.7635,324.6282,0,U,69211,999,448,.16362248E-2,.89671E-3,0
STARLINK-37713,2026-115B,2026-06-15T22:00:01.999584,15.49133308,.00020301,97.2848,184.1445,89.3902,265.1590,0,U,69212,999,448,.15863517E-2,.86978E-3,0
STARLINK-37716,2026-115C,2026-06-15T22:00:01.999584,15.50161347,.00015938,97.2842,184.2003,77.2625,47.2415,0,U,69213,999,448,-.27604251E-1,-.139466E-1,0
STARLINK-37620,2026-115D,2026-06-15T23:38:16.687104,15.49226470,.00005718,97.2833,184.0528,97.6304,262.5012,0,U,69214,999,447,.61177488E-3,.33366E-3,0
STARLINK-37700,2026-115E,2026-06-15T22:59:59.492544,15.49203380,.00013973,97.2831,183.9373,87.6764,272.4647,0,U,69215,999,446,.27387657E-3,.1484E-3,0
STARLINK-37766,2026-115F,2026-06-15T22:00:01.999584,15.56808352,.00022941,97.2839,184.2441,83.6238,138.7193,0,U,69216,999,448,-.38450902E-1,-.2407398E-1,0
STARLINK-37763,2026-115G,2026-06-15T22:00:01.999584,15.51761763,.00020334,97.2842,184.1965,75.6043,35.6604,0,U,69217,999,448,-.5026327E-1,-.2640185E-1,0
STARLINK-37724,2026-115H,2026-06-15T22:00:01.999584,15.59010004,.00016433,97.2848,184.2788,96.2889,202.8758,0,U,69218,999,448,-.35685008E-1,-.2424745E-1,0
STARLINK-37758,2026-115J,2026-06-15T22:00:01.999584,15.59388904,.00015055,97.2847,184.2865,96.1501,222.1276,0,U,69219,999,448,-.34515721E-1,-.238499E-1,0
STARLINK-37201,2026-115K,2026-06-15T22:00:01.999584,15.59133888,.00015658,97.2840,184.2854,96.4189,216.1791,0,U,69220,999,448,-.35599803E-1,-.2429611E-1,0
STARLINK-37728,2026-115L,2026-06-15T22:00:01.999584,15.57476322,.00016994,97.2845,184.2785,100.6858,199.5163,0,U,69221,999,448,-.37142208E-1,-.2386849E-1,0
STARLINK-37760,2026-115M,2026-06-15T22:00:01.999584,15.60712381,.00013465,97.2847,184.2917,100.2281,232.4405,0,U,69222,999,448,-.34032764E-1,-.2462615E-1,0
STARLINK-37759,2026-115N,2026-06-15T22:00:01.999584,15.49101864,.00012441,97.2842,184.2006,105.3869,16.4859,0,U,69223,999,448,.21085258E-2,.115936E-2,0
STARLINK-37725,2026-115P,2026-06-15T22:00:01.999584,15.49102551,.00013316,97.2840,184.2066,99.0573,35.4577,0,U,69224,999,448,.2028471E-2,.11147E-2,0
STARLINK-37770,2026-115Q,2026-06-15T22:00:01.999584,15.61746763,.00012848,97.2851,184.3034,82.4515,275.3142,0,U,69225,999,448,-.32500799E-1,-.2449866E-1,0
