STARLINK-36933          
1 69196U 26114Q   26166.92357034  .00296721  00000+0  14477-2 0  9990
2 69196  53.1568 208.4742 0000615 110.7232 249.3857 15.80994060  4572
STARLINK-37419          
1 69197U 26114R   26166.92207078  .00328143  00000+0  15940-2 0  9993
2 69197  53.1568 208.4632 0000568  16.5884 343.5157 15.81003226  4570
STARLINK-37321          
1 69198U 26114S   26166.92131963  .00251994  00000+0  12371-2 0  9997
2 69198  53.1572 208.4588 0000600  78.7345 281.3745 15.80982430  4579
STARLINK-37406          
1 69199U 26114T   26166.92057125  .00176617  00000+0  87740-3 0  9996
2 69199  53.1569 208.4533 0000628 103.8661 256.2432 15.80941671  4573
STARLINK-37761          
1 69200U 26114U   26166.91982073  .00284543  00000+0  13909-2 0  9990
2 69200  53.1567 208.4477 0000423 117.0631 243.0435 15.80985893  4579
STARLINK-37754          
1 69201U 26114V   26166.91887749  .00192175  00000+0  95200-3 0  9999
2 69201  53.1568 208.4424 0001039  63.1214 296.9915 15.80956703  4573
STARLINK-37649          
1 69202U 26114W   26166.91832436  .00209707  00000+0  10364-2 0  9990
2 69202  53.1569 208.4388 0001228  78.6030 281.5131 15.80956879  4575
STARLINK-37604          
1 69203U 26114X   26166.91756971  .00198800  00000+0  98382-3 0  9998
2 69203  53.1568 208.4335 0000911  85.8043 274.3084 15.80959214  4572
STARLINK-37669          
1 69204U 26114Y   26166.91682046  .00207383  00000+0  10251-2 0  9995
2 69204  53.1571 208.4283 0001078  86.7244 273.3902 15.80959032  4573
STARLINK-37691          
1 69205U 26114Z   26166.92905405  .00155078  00000+0  87870-3 0  9999
2 69205  53.1572 208.5090 0000368  38.7355 321.3693 15.78109388  4572
STARLINK-37671          
1 69206U 26114AA  26166.91668981 -.00015708  00000+0 -86822-4 0  9998
2 69206  53.1581 208.4858 0001044  94.0217 237.3557 15.78046086  4613
STARLINK-37647          
1 69207U 26114AB  26166.91606815  .00299099  00000+0  14581-2 0  9993
2 69207  53.1569 208.4232 0000816  82.2039 277.9076 15.81005530  4577
STARLINK-37562          
1 69208U 26114AC  26166.92378320  .00144282  00000+0  81866-3 0  9996
2 69208  53.1581 208.4735 0000544  78.1913 281.9170 15.78114250  4579
STARLINK-37682          
1 69209U 26114AD  26166.91306768  .00304569  00000+0  14839-2 0  9994
2 69209  53.1567 208.4018 0000798 101.3203 258.7910 15.81003229  4571
STARLINK-37402          
1 69210U 26114AE  26166.84910353  .00250591  00000+0  12313-2 0  9999
2 69210  53.1569 208.7141 0001523  67.1740 292.9444 15.80967006  4569
STARLINK-37613          
1 69211U 26115A   26166.91668981  .00089671  00000+0  16362-2 0  9993
2 69211  97.2837 184.0192 0001198  94.7635 324.6282 15.49109998  4483
STARLINK-37713          
1 69212U 26115B   26166.91668981  .00086978  00000+0  15864-2 0  9997
2 69212  97.2848 184.1445 0002030  89.3902 265.1590 15.49133308  4484
STARLINK-37716          
1 69213U 26115C   26166.91668981 -.01394660  00000+0 -27604-1 0  9995
2 69213  97.2842 184.2003 0001593  77.2625  47.2415 15.50161347  4482
STARLINK-37620          
1 69214U 26115D   26166.98491536  .00033366  00000+0  61177-3 0  9998
2 69214  97.2833 184.0528 0000571  97.6304 262.5012 15.49226470  4479
STARLINK-37700          
1 69215U 26115E   26166.95832746  .00014840  00000+0  27388-3 0  9990
2 69215  97.2831 183.9373 0001397  87.6764 272.4647 15.49203380  4468
STARLINK-37766          
1 69216U 26115F   26166.91668981 -.02407398  00000+0 -38451-1 0  9994
2 69216  97.2839 184.2441 0002294  83.6238 138.7193 15.56808352  4486
STARLINK-37763          
1 69217U 26115G   26166.91668981 -.02640185  00000+0 -50263-1 0  9993
2 69217  97.2842 184.1965 0002033  75.6043  35.6604 15.51761763  4488
STARLINK-37724          
1 69218U 26115H   26166.91668981 -.02424745  00000+0 -35685-1 0  9997
2 69218  97.2848 184.2788 0001643  96.2889 202.8758 15.59010004  4483
STARLINK-37758          
1 69219U 26115J   26166.91668981 -.02384990  00000+0 -34516-1 0  9997
2 69219  97.2847 184.2865 0001505  96.1501 222.1276 15.59388904  4483
STARLINK-37201          
1 69220U 26115K   26166.91668981 -.02429611  00000+0 -35600-1 0  9994
2 69220  97.2840 184.2854 0001565  96.4189 216.1791 15.59133888  4481
STARLINK-37728          
1 69221U 26115L   26166.91668981 -.02386849  00000+0 -37142-1 0  9993
2 69221  97.2845 184.2785 0001699 100.6858 199.5163 15.57476322  4487
STARLINK-37760          
1 69222U 26115M   26166.91668981 -.02462615  00000+0 -34033-1 0  9996
2 69222  97.2847 184.2917 0001346 100.2281 232.4405 15.60712381  4480
STARLINK-37759          
1 69223U 26115N   26166.91668981  .00115936  00000+0  21085-2 0  9998
2 69223  97.2842 184.2006 0001244 105.3869  16.4859 15.49101864  4488
STARLINK-37725          
1 69224U 26115P   26166.91668981  .00111470  00000+0  20285-2 0  9999
2 69224  97.2840 184.2066 0001331  99.0573  35.4577 15.49102551  4483
STARLINK-37770          
1 69225U 26115Q   26166.91668981 -.02449866  00000+0 -32501-1 0  9990
2 69225  97.2851 184.3034 0001284  82.4515 275.3142 15.61746763  4487
